CTC2_L_00040001-01
1 14104U 26198UP  26070.40842593  .00000000  00000+0  00000-0 0  9995
2 14104  75.0000   0.0000 0000000   0.0000   0.0000 15.59190035    13
CTC2_L_00040001-02
1 14105U 24493HL  26070.40842593  .00000000  00000+0  00000-0 0  9992
2 14105  75.0000   0.0000 0000000   0.0000  90.0000 15.59190035    13
CTC2_L_00040001-03
1 14106U 22246EX  26070.40842593  .00000000  00000+0  00000-0 0  9997
2 14106  75.0000   0.0000 0000000   0.0000 180.0000 15.59190035    14
CTC2_L_00040001-04
1 14107U 25137XJ  26070.40842593  .00000000  00000+0  00000-0 0  9990
2 14107  75.0000   0.0000 0000000   0.0000 270.0000 15.59190035    15
CTC2_L_00040002-01
1 14108U 23173LS  26070.40842593  .00000000  00000+0  00000-0 0  9999
2 14108  75.0000  12.0000 0000000   0.0000  12.0000 15.59190035    13
CTC2_L_00040002-02
1 14109U 25426FQ  26070.40842593  .00000000  00000+0  00000-0 0  9993
2 14109  75.0000  12.0000 0000000   0.0000 102.0000 15.59190035    14
CTC2_L_00040002-03
1 14110U 22540IM  26070.40842593  .00000000  00000+0  00000-0 0  9999
2 14110  75.0000  12.0000 0000000   0.0000 192.0000 15.59190035    15
CTC2_L_00040002-04
1 14111U 23787PA  26070.40842593  .00000000  00000+0  00000-0 0  9994
2 14111  75.0000  12.0000 0000000   0.0000 282.0000 15.59190035    16
CTC2_L_00040003-01
1 14112U 25336HE  26070.40842593  .00000000  00000+0  00000-0 0  9997
2 14112  75.0000  24.0000 0000000   0.0000  24.0000 15.59190035    14
CTC2_L_00040003-02
1 14113U 22933UK  26070.40842593  .00000000  00000+0  00000-0 0  9998
2 14113  75.0000  24.0000 0000000   0.0000 114.0000 15.59190035    15
CTC2_L_00040003-03
1 14114U 24885P   26070.40842593  .00000000  00000+0  00000-0 0  9997
2 14114  75.0000  24.0000 0000000   0.0000 204.0000 15.59190035    16
CTC2_L_00040003-04
1 14115U 23737LS  26070.40842593  .00000000  00000+0  00000-0 0  9993
2 14115  75.0000  24.0000 0000000   0.0000 294.0000 15.59190035    16
CTC2_L_00040004-01
1 14116U 24767LU  26070.40842593  .00000000  00000+0  00000-0 0  9998
2 14116  75.0000  36.0000 0000000   0.0000  36.0000 15.59190035    14
CTC2_L_00040004-02
1 14117U 26716XW  26070.40842593  .00000000  00000+0  00000-0 0  9995
2 14117  75.0000  36.0000 0000000   0.0000 126.0000 15.59190035    15
CTC2_L_00040004-03
1 14118U 22544RW  26070.40842593  .00000000  00000+0  00000-0 0  9991
2 14118  75.0000  36.0000 0000000   0.0000 216.0000 15.59190035    16
CTC2_L_00040004-04
1 14119U 22092LL  26070.40842593  .00000000  00000+0  00000-0 0  9990
2 14119  75.0000  36.0000 0000000   0.0000 306.0000 15.59190035    17
CTC2_L_00040005-01
1 14120U 26194DH  26070.40842593  .00000000  00000+0  00000-0 0  9999
2 14120  75.0000  48.0000 0000000   0.0000  48.0000 15.59190035    15
CTC2_L_00040005-02
1 14121U 26449PJ  26070.40842593  .00000000  00000+0  00000-0 0  9993
2 14121  75.0000  48.0000 0000000   0.0000 138.0000 15.59190035    16
CTC2_L_00040005-03
1 14122U 23237WE  26070.40842593  .00000000  00000+0  00000-0 0  9996
2 14122  75.0000  48.0000 0000000   0.0000 228.0000 15.59190035    17
CTC2_L_00040005-04
1 14123U 22931OI  26070.40842593  .00000000  00000+0  00000-0 0  9997
2 14123  75.0000  48.0000 0000000   0.0000 318.0000 15.59190035    18
CTC2_L_00040006-01
1 14124U 26241GI  26070.40842593  .00000000  00000+0  00000-0 0  9996
2 14124  75.0000  60.0000 0000000   0.0000  60.0000 15.59190035    17
CTC2_L_00040006-02
1 14125U 23582AP  26070.40842593  .00000000  00000+0  00000-0 0  9992
2 14125  75.0000  60.0000 0000000   0.0000 150.0000 15.59190035    18
CTC2_L_00040006-03
1 14126U 26166OK  26070.40842593  .00000000  00000+0  00000-0 0  9994
2 14126  75.0000  60.0000 0000000   0.0000 240.0000 15.59190035    19
CTC2_L_00040006-04
1 14127U 23116AF  26070.40842593  .00000000  00000+0  00000-0 0  9997
2 14127  75.0000  60.0000 0000000   0.0000 330.0000 15.59190035    10
CTC2_L_00040007-01
1 14128U 25862WQ  26070.40842593  .00000000  00000+0  00000-0 0  9998
2 14128  75.0000  72.0000 0000000   0.0000  72.0000 15.59190035    17
CTC2_L_00040007-02
1 14129U 25529ZY  26070.40842593  .00000000  00000+0  00000-0 0  9999
2 14129  75.0000  72.0000 0000000   0.0000 162.0000 15.59190035    18
CTC2_L_00040007-03
1 14130U 26388KX  26070.40842593  .00000000  00000+0  00000-0 0  9995
2 14130  75.0000  72.0000 0000000   0.0000 252.0000 15.59190035    10
CTC2_L_00040007-04
1 14131U 25900SG  26070.40842593  .00000000  00000+0  00000-0 0  9995
2 14131  75.0000  72.0000 0000000   0.0000 342.0000 15.59190035    11
CTC2_L_00040008-01
1 14132U 22924KU  26070.40842593  .00000000  00000+0  00000-0 0  9999
2 14132  75.0000  84.0000 0000000   0.0000  84.0000 15.59190035    18
CTC2_L_00040008-02
1 14133U 25801NF  26070.40842593  .00000000  00000+0  00000-0 0  9997
2 14133  75.0000  84.0000 0000000   0.0000 174.0000 15.59190035    19
CTC2_L_00040008-03
1 14134U 22918HO  26070.40842593  .00000000  00000+0  00000-0 0  9994
2 14134  75.0000  84.0000 0000000   0.0000 264.0000 15.59190035    10
CTC2_L_00040008-04
1 14135U 23409B   26070.40842593  .00000000  00000+0  00000-0 0  9991
2 14135  75.0000  84.0000 0000000   0.0000 354.0000 15.59190035    11
CTC2_L_00040009-01
1 14136U 23809AD  26070.40842593  .00000000  00000+0  00000-0 0  9996
2 14136  75.0000  96.0000 0000000   0.0000  96.0000 15.59190035    18
CTC2_L_00040009-02
1 14137U 22045IS  26070.40842593  .00000000  00000+0  00000-0 0  9998
2 14137  75.0000  96.0000 0000000   0.0000 186.0000 15.59190035    19
CTC2_L_00040009-03
1 14138U 22550UV  26070.40842593  .00000000  00000+0  00000-0 0  9990
2 14138  75.0000  96.0000 0000000   0.0000 276.0000 15.59190035    10
CTC2_L_00040009-04
1 14139U 26109GB  26070.40842593  .00000000  00000+0  00000-0 0  9995
2 14139  75.0000  96.0000 0000000   0.0000   6.0000 15.59190035    12
CTC2_L_00040010-01
1 14140U 23297GR  26070.40842593  .00000000  00000+0  00000-0 0  9992
2 14140  75.0000 108.0000 0000000   0.0000 108.0000 15.59190035    11
CTC2_L_00040010-02
1 14141U 26799FL  26070.40842593  .00000000  00000+0  00000-0 0  9993
2 14141  75.0000 108.0000 0000000   0.0000 198.0000 15.59190035    11
CTC2_L_00040010-03
1 14142U 25639HS  26070.40842593  .00000000  00000+0  00000-0 0  9996
2 14142  75.0000 108.0000 0000000   0.0000 288.0000 15.59190035    12
CTC2_L_00040010-04
1 14143U 24354VZ  26070.40842593  .00000000  00000+0  00000-0 0  9990
2 14143  75.0000 108.0000 0000000   0.0000  18.0000 15.59190035    14
CTC2_L_00040011-01
1 14144U 22289LR  26070.40842593  .00000000  00000+0  00000-0 0  9996
2 14144  75.0000 120.0000 0000000   0.0000 120.0000 15.59190035    13
CTC2_L_00040011-02
1 14145U 23919EZ  26070.40842593  .00000000  00000+0  00000-0 0  9998
2 14145  75.0000 120.0000 0000000   0.0000 210.0000 15.59190035    14
CTC2_L_00040011-03
1 14146U 23482UU  26070.40842593  .00000000  00000+0  00000-0 0  9994
2 14146  75.0000 120.0000 0000000   0.0000 300.0000 15.59190035    15
CTC2_L_00040011-04
1 14147U 22668IG  26070.40842593  .00000000  00000+0  00000-0 0  9990
2 14147  75.0000 120.0000 0000000   0.0000  30.0000 15.59190035    16
CTC2_L_00040012-01
1 14148U 25582ND  26070.40842593  .00000000  00000+0  00000-0 0  9999
2 14148  75.0000 132.0000 0000000   0.0000 132.0000 15.59190035    13
CTC2_L_00040012-02
1 14149U 23435UI  26070.40842593  .00000000  00000+0  00000-0 0  9995
2 14149  75.0000 132.0000 0000000   0.0000 222.0000 15.59190035    14
CTC2_L_00040012-03
1 14150U 24861AD  26070.40842593  .00000000  00000+0  00000-0 0  9991
2 14150  75.0000 132.0000 0000000   0.0000 312.0000 15.59190035    16
CTC2_L_00040012-04
1 14151U 26373HM  26070.40842593  .00000000  00000+0  00000-0 0  9992
2 14151  75.0000 132.0000 0000000   0.0000  42.0000 15.59190035    17
CTC2_L_00040013-01
1 14152U 24359SA  26070.40842593  .00000000  00000+0  00000-0 0  9995
2 14152  75.0000 144.0000 0000000   0.0000 144.0000 15.59190035    14
CTC2_L_00040013-02
1 14153U 22528AK  26070.40842593  .00000000  00000+0  00000-0 0  9992
2 14153  75.0000 144.0000 0000000   0.0000 234.0000 15.59190035    15
CTC2_L_00040013-03
1 14154U 26737BR  26070.40842593  .00000000  00000+0  00000-0 0  9999
2 14154  75.0000 144.0000 0000000   0.0000 324.0000 15.59190035    16
CTC2_L_00040013-04
1 14155U 26592JQ  26070.40842593  .00000000  00000+0  00000-0 0  9999
2 14155  75.0000 144.0000 0000000   0.0000  54.0000 15.59190035    17
CTC2_L_00040014-01
1 14156U 25435GC  26070.40842593  .00000000  00000+0  00000-0 0  9995
2 14156  75.0000 156.0000 0000000   0.0000 156.0000 15.59190035    14
CTC2_L_00040014-02
1 14157U 25693EQ  26070.40842593  .00000000  00000+0  00000-0 0  9992
2 14157  75.0000 156.0000 0000000   0.0000 246.0000 15.59190035    15
CTC2_L_00040014-03
1 14158U 23061BR  26070.40842593  .00000000  00000+0  00000-0 0  9990
2 14158  75.0000 156.0000 0000000   0.0000 336.0000 15.59190035    16
CTC2_L_00040014-04
1 14159U 26113WN  26070.40842593  .00000000  00000+0  00000-0 0  9992
2 14159  75.0000 156.0000 0000000   0.0000  66.0000 15.59190035    17
CTC2_L_00040015-01
1 14160U 24987RV  26070.40842593  .00000000  00000+0  00000-0 0  9991
2 14160  75.0000 168.0000 0000000   0.0000 168.0000 15.59190035    15
CTC2_L_00040015-02
1 14161U 23711G   26070.40842593  .00000000  00000+0  00000-0 0  9996
2 14161  75.0000 168.0000 0000000   0.0000 258.0000 15.59190035    16
CTC2_L_00040015-03
1 14162U 26898PV  26070.40842593  .00000000  00000+0  00000-0 0  9996
2 14162  75.0000 168.0000 0000000   0.0000 348.0000 15.59190035    17
CTC2_L_00040015-04
1 14163U 26753WD  26070.40842593  .00000000  00000+0  00000-0 0  9997
2 14163  75.0000 168.0000 0000000   0.0000  78.0000 15.59190035    18
CTC2_L_00040016-01
1 14164U 26388SA  26070.40842593  .00000000  00000+0  00000-0 0  9992
2 14164  75.0000 180.0000 0000000   0.0000 180.0000 15.59190035    17
CTC2_L_00040016-02
1 14165U 26852JW  26070.40842593  .00000000  00000+0  00000-0 0  9999
2 14165  75.0000 180.0000 0000000   0.0000 270.0000 15.59190035    18
